[{"OBJECT_NAME":"SPAWAR-CAL-O","OBJECT_ID":"2018-099J","EPOCH":"2026-03-09T17:45:15.080832","MEAN_MOTION":15.31356755,"ECCENTRICITY":0.00072392,"INCLINATION":97.4452,"RA_OF_ASC_NODE":132.0993,"ARG_OF_PERICENTER":285.067,"MEAN_ANOMALY":74.977,"EPHEMERIS_TYPE":0,"CLASSIFICATION_TYPE":"U","NORAD_CAT_ID":43766,"ELEMENT_SET_NO":999,"REV_AT_EPOCH":39828,"BSTAR":0.00069663212,"MEAN_MOTION_DOT":0.00021069,"MEAN_MOTION_DDOT":0},{"OBJECT_NAME":"STARLINK-34727","OBJECT_ID":"2025-161L","EPOCH":"2026-03-09T21:16:53.775264","MEAN_MOTION":15.30191467,"ECCENTRICITY":0.00011386,"INCLINATION":53.1584,"RA_OF_ASC_NODE":293.0315,"ARG_OF_PERICENTER":82.1949,"MEAN_ANOMALY":277.9181,"EPHEMERIS_TYPE":0,"CLASSIFICATION_TYPE":"U","NORAD_CAT_ID":65025,"ELEMENT_SET_NO":999,"REV_AT_EPOCH":3538,"BSTAR":0.00045058397,"MEAN_MOTION_DOT":0.00013006,"MEAN_MOTION_DDOT":0}]
